[{"OBJECT_NAME":"JIAOTONG 5 (HEAD-2H)","OBJECT_ID":"2022-167K","EPOCH":"2026-03-09T23:22:06.822048","MEAN_MOTION":15.70872056,"ECCENTRICITY":0.00036843,"INCLINATION":97.6162,"RA_OF_ASC_NODE":251.2696,"ARG_OF_PERICENTER":321.7019,"MEAN_ANOMALY":38.3981,"EPHEMERIS_TYPE":0,"CLASSIFICATION_TYPE":"U","NORAD_CAT_ID":54691,"ELEMENT_SET_NO":999,"REV_AT_EPOCH":18142,"BSTAR":0.0011277683,"MEAN_MOTION_DOT":0.00142368,"MEAN_MOTION_DDOT":0},{"OBJECT_NAME":"STARLINK-11090 [DTC]","OBJECT_ID":"2024-065B","EPOCH":"2026-03-09T11:58:54.692832","MEAN_MOTION":15.69723003,"ECCENTRICITY":9.676e-5,"INCLINATION":53.1581,"RA_OF_ASC_NODE":94.7887,"ARG_OF_PERICENTER":120.1166,"MEAN_ANOMALY":239.9948,"EPHEMERIS_TYPE":0,"CLASSIFICATION_TYPE":"U","NORAD_CAT_ID":59422,"ELEMENT_SET_NO":999,"REV_AT_EPOCH":11150,"BSTAR":-2.2415259e-5,"MEAN_MOTION_DOT":-3.304e-5,"MEAN_MOTION_DDOT":0}]
